STARLINK-37946          
1 69672U 26143Z   26182.58335648  .00073986  00000+0  38433-3 0  9993
2 69672  97.2831 226.2036 0001135 104.5903 278.0595 15.80781728  2684
TJS-26A                 
1 69674U 26144A   26174.32980920  .00009630 -16661-6  31526-3 0  9997
2 69674  19.5157 324.7456 7314561 179.7910 181.1077  2.27958502    21
STARLINK-38005          
1 69677U 26145A   26182.58335648 -.00049780  00000+0 -26067-3 0  9997
2 69677  97.2847  28.7379 0001060  95.4352 247.8184 15.80812819  2240
STARLINK-38009          
1 69678U 26145B   26182.58335648  .00024870  00000+0  13031-3 0  9996
2 69678  97.2846  28.7401 0000938  64.9353 282.9999 15.80799997  2246
STARLINK-37998          
1 69679U 26145C   26182.58335648  .00154922  00000+0  79856-3 0  9996
2 69679  97.2847  28.7427 0001519 102.9790 248.9746 15.80724914  2249
STARLINK-37994          
1 69680U 26145D   26182.58335648  .00102502  00000+0  53121-3 0  9992
2 69680  97.2846  28.7421 0000956  53.3065 299.2776 15.80749939  2248
STARLINK-37992          
1 69681U 26145E   26182.58335648  .00006927  00000+0  36885-4 0  9996
2 69681  97.2846  28.7429 0001377  98.8792 255.5266 15.80808349  2246
STARLINK-37997          
1 69682U 26145F   26182.58335648  .00060295  00000+0  31376-3 0  9994
2 69682  97.2847  28.7438 0001539 108.5221 247.5072 15.80786493  2245
STARLINK-37990          
1 69683U 26145G   26182.58335648  .00007048  00000+0  37495-4 0  9991
2 69683  97.2849  28.7468 0001800  88.6390 275.4409 15.80823012  2240
STARLINK-37951          
1 69684U 26145H   26182.58335648 -.00006075  00000+0 -30985-4 0  9990
2 69684  97.2847  28.7478 0001597  87.3219 277.4547 15.80823372  2243
STARLINK-37957          
1 69685U 26145J   26182.58335648 -.00084792  00000+0 -44551-3 0  9996
2 69685  97.2847  28.7492 0000985 110.1790 257.4553 15.80852383  2248
STARLINK-37968          
1 69686U 26145K   26182.58335648 -.02356050  00000+0 -12742-1 0  9993
2 69686  97.2855  28.7600 0001544  73.7757 318.6913 15.83105408  2240
STARLINK-37977          
1 69687U 26145L   26182.58335648 -.02400806  00000+0 -12770-1 0  9994
2 69687  97.2857  28.7616 0001587  69.5610 328.5742 15.83518565  2240
STARLINK-37908          
1 69688U 26145M   26182.58335648 -.02140323  00000+0 -11305-1 0  9993
2 69688  97.2860  28.7658 0001563  81.1945 322.7854 15.83832196  2245
STARLINK-37979          
1 69689U 26145N   26182.58335648 -.02402187  00000+0 -12466-1 0  9992
2 69689  97.2859  28.7654 0001585  72.1858 335.2845 15.84035876  2247
STARLINK-37940          
1 69690U 26145P   26182.58335648 -.02399155  00000+0 -12127-1 0  9998
2 69690  97.2862  28.7688 0001633  75.5312 339.3706 15.84579252  2248
STARLINK-37961          
1 69691U 26145Q   26182.58335648 -.02394740  00000+0 -11795-1 0  9994
2 69691  97.2862  28.7721 0001690  66.7530 355.3293 15.85109569  2244
STARLINK-37787          
1 69692U 26145R   26182.58335648 -.02331726  00000+0 -11528-1 0  9994
2 69692  97.2865  28.7754 0001690  74.5793 355.3411 15.85531331  2240
STARLINK-37962          
1 69693U 26145S   26182.58335648 -.02337014  00000+0 -11550-1 0  9996
2 69693  97.2865  28.7753 0001643  69.8082 359.3956 15.85547657  2242
STARLINK-37953          
1 69694U 26145T   26182.58335648 -.02400473  00000+0 -11604-1 0  9997
2 69694  97.2865  28.7756 0001809  74.4765 356.2507 15.85501445  2243
STARLINK-37926          
1 69695U 26145U   26182.58335648 -.02340186  00000+0 -11509-1 0  9996
2 69695  97.2866  28.7773 0001801  71.8189   1.6571 15.85651017  2240
STARLINK-37959          
1 69696U 26145V   26182.58335648 -.02330453  00000+0 -11446-1 0  9993
2 69696  97.2867  28.7770 0001704  71.2378   3.1753 15.85663141  2245
STARLINK-37976          
1 69697U 26145W   26182.58335648 -.02334290  00000+0 -11047-1 0  9994
2 69697  97.2872  28.7817 0001629  65.5776  19.2282 15.86427609  2241
STARLINK-37912          
1 69698U 26145X   26182.58335648 -.02336899  00000+0 -10849-1 0  9991
2 69698  97.2870  28.7842 0001741  70.7209  19.6835 15.86819624  2242
STARLINK-37974          
1 69699U 26145Y   26182.58335648 -.02330297  00000+0 -10741-1 0  9999
2 69699  97.2870  28.7852 0001688  73.4178  19.6561 15.86952341  2249
STARLINK-37955          
1 69700U 26145Z   26182.58335648 -.02329038  00000+0 -10257-1 0  9995
2 69700  97.2873  28.7903 0001728  73.8576  30.6863 15.87864399  2247
STRIX-8                 
1 69701U 26146A   26182.01102308  .00005347  00000+0  39020-3 0  9991
2 69701  41.9894  91.6618 0009187 295.2146  64.7728 15.04321127   645
