OBJECT_NAME,OBJECT_ID,EPOCH,MEAN_MOTION,ECCENTRICITY,INCLINATION,RA_OF_ASC_NODE,ARG_OF_PERICENTER,MEAN_ANOMALY,EPHEMERIS_TYPE,CLASSIFICATION_TYPE,NORAD_CAT_ID,ELEMENT_SET_NO,REV_AT_EPOCH,BSTAR,MEAN_MOTION_DOT,MEAN_MOTION_DDOT
STARLINK-37946,2026-143Z,2026-07-01T14:00:01.999872,15.80781728,.00011354,97.2831,226.2036,104.5903,278.0595,0,U,69672,999,268,.38433167E-3,.73986E-3,0
TJS-26A,2026-144A,2026-06-23T07:54:55.514880,2.27958502,.73145613,19.5157,324.7456,179.7910,181.1077,0,U,69674,999,2,.31526459E-3,.963E-4,-.166614E-6
STARLINK-38005,2026-145A,2026-07-01T14:00:01.999872,15.80812819,.00010607,97.2847,28.7379,95.4352,247.8184,0,U,69677,999,224,-.26067146E-3,-.4978E-3,0
STARLINK-38009,2026-145B,2026-07-01T14:00:01.999872,15.80799997,.00009387,97.2846,28.7401,64.9353,282.9999,0,U,69678,999,224,.13030793E-3,.2487E-3,0
STARLINK-37998,2026-145C,2026-07-01T14:00:01.999872,15.80724914,.0001519,97.2847,28.7427,102.9790,248.9746,0,U,69679,999,224,.79855976E-3,.154922E-2,0
STARLINK-37994,2026-145D,2026-07-01T14:00:01.999872,15.80749939,.0000956,97.2846,28.7421,53.3065,299.2776,0,U,69680,999,224,.53121102E-3,.102502E-2,0
STARLINK-37992,2026-145E,2026-07-01T14:00:01.999872,15.80808349,.00013775,97.2846,28.7429,98.8792,255.5266,0,U,69681,999,224,.36885307E-4,.6927E-4,0
STARLINK-37997,2026-145F,2026-07-01T14:00:01.999872,15.80786493,.00015396,97.2847,28.7438,108.5221,247.5072,0,U,69682,999,224,.31376302E-3,.60295E-3,0
STARLINK-37990,2026-145G,2026-07-01T14:00:01.999872,15.80823012,.00018007,97.2849,28.7468,88.6390,275.4409,0,U,69683,999,224,.37495284E-4,.7048E-4,0
STARLINK-37951,2026-145H,2026-07-01T14:00:01.999872,15.80823372,.00015973,97.2847,28.7478,87.3219,277.4547,0,U,69684,999,224,-.30985477E-4,-.6075E-4,0
STARLINK-37957,2026-145J,2026-07-01T14:00:01.999872,15.80852383,.00009855,97.2847,28.7492,110.1790,257.4553,0,U,69685,999,224,-.44550592E-3,-.84792E-3,0
STARLINK-37968,2026-145K,2026-07-01T14:00:01.999872,15.83105408,.00015445,97.2855,28.7600,73.7757,318.6913,0,U,69686,999,224,-.12742035E-1,-.235605E-1,0
STARLINK-37977,2026-145L,2026-07-01T14:00:01.999872,15.83518565,.00015875,97.2857,28.7616,69.5610,328.5742,0,U,69687,999,224,-.12769548E-1,-.2400806E-1,0
STARLINK-37908,2026-145M,2026-07-01T14:00:01.999872,15.83832196,.00015634,97.2860,28.7658,81.1945,322.7854,0,U,69688,999,224,-.11305281E-1,-.2140323E-1,0
STARLINK-37979,2026-145N,2026-07-01T14:00:01.999872,15.84035876,.00015859,97.2859,28.7654,72.1858,335.2845,0,U,69689,999,224,-.12466221E-1,-.2402187E-1,0
STARLINK-37940,2026-145P,2026-07-01T14:00:01.999872,15.84579252,.0001633,97.2862,28.7688,75.5312,339.3706,0,U,69690,999,224,-.12126913E-1,-.2399155E-1,0
STARLINK-37961,2026-145Q,2026-07-01T14:00:01.999872,15.85109569,.00016903,97.2862,28.7721,66.7530,355.3293,0,U,69691,999,224,-.11794574E-1,-.239474E-1,0
STARLINK-37787,2026-145R,2026-07-01T14:00:01.999872,15.85531331,.00016903,97.2865,28.7754,74.5793,355.3411,0,U,69692,999,224,-.11527686E-1,-.2331726E-1,0
STARLINK-37962,2026-145S,2026-07-01T14:00:01.999872,15.85547657,.00016437,97.2865,28.7753,69.8082,359.3956,0,U,69693,999,224,-.11550357E-1,-.2337014E-1,0
STARLINK-37953,2026-145T,2026-07-01T14:00:01.999872,15.85501445,.00018094,97.2865,28.7756,74.4765,356.2507,0,U,69694,999,224,-.11603555E-1,-.2400473E-1,0
STARLINK-37926,2026-145U,2026-07-01T14:00:01.999872,15.85651017,.00018016,97.2866,28.7773,71.8189,1.6571,0,U,69695,999,224,-.11509376E-1,-.2340186E-1,0
STARLINK-37959,2026-145V,2026-07-01T14:00:01.999872,15.85663141,.00017049,97.2867,28.7770,71.2378,3.1753,0,U,69696,999,224,-.11446031E-1,-.2330453E-1,0
STARLINK-37976,2026-145W,2026-07-01T14:00:01.999872,15.86427609,.00016298,97.2872,28.7817,65.5776,19.2282,0,U,69697,999,224,-.1104692E-1,-.233429E-1,0
STARLINK-37912,2026-145X,2026-07-01T14:00:01.999872,15.86819624,.00017412,97.2870,28.7842,70.7209,19.6835,0,U,69698,999,224,-.10848566E-1,-.2336899E-1,0
STARLINK-37974,2026-145Y,2026-07-01T14:00:01.999872,15.86952341,.00016881,97.2870,28.7852,73.4178,19.6561,0,U,69699,999,224,-.10741466E-1,-.2330297E-1,0
STARLINK-37955,2026-145Z,2026-07-01T14:00:01.999872,15.87864399,.00017282,97.2873,28.7903,73.8576,30.6863,0,U,69700,999,224,-.10257419E-1,-.2329038E-1,0
STRIX-8,2026-146A,2026-07-01T00:15:52.394112,15.04321127,.00091873,41.9894,91.6618,295.2146,64.7728,0,U,69701,999,64,.39019769E-3,.5347E-4,0
